[{"OBJECT_NAME":"DIRECTV 11","OBJECT_ID":"2008-013A","EPOCH":"2026-03-06T04:55:42.106080","MEAN_MOTION":1.00271804,"ECCENTRICITY":2.93e-5,"INCLINATION":0.018,"RA_OF_ASC_NODE":332.037,"ARG_OF_PERICENTER":7.654,"MEAN_ANOMALY":158.9621,"EPHEMERIS_TYPE":0,"CLASSIFICATION_TYPE":"U","NORAD_CAT_ID":32729,"ELEMENT_SET_NO":999,"REV_AT_EPOCH":4456,"BSTAR":0,"MEAN_MOTION_DOT":-1.31e-6,"MEAN_MOTION_DDOT":0},{"OBJECT_NAME":"GALAXY 18 (G-18)","OBJECT_ID":"2008-024A","EPOCH":"2026-03-06T06:31:40.404288","MEAN_MOTION":1.00271679,"ECCENTRICITY":0.00032486,"INCLINATION":0.0226,"RA_OF_ASC_NODE":155.7057,"ARG_OF_PERICENTER":216.9145,"MEAN_ANOMALY":126.3102,"EPHEMERIS_TYPE":0,"CLASSIFICATION_TYPE":"U","NORAD_CAT_ID":32951,"ELEMENT_SET_NO":999,"REV_AT_EPOCH":4482,"BSTAR":0,"MEAN_MOTION_DOT":0,"MEAN_MOTION_DDOT":0},{"OBJECT_NAME":"INTELSAT 25 (IS-25)","OBJECT_ID":"2008-034A","EPOCH":"2026-03-06T04:49:47.680320","MEAN_MOTION":1.00272625,"ECCENTRICITY":0.00037338,"INCLINATION":2.4419,"RA_OF_ASC_NODE":81.5969,"ARG_OF_PERICENTER":237.3509,"MEAN_ANOMALY":245.929,"EPHEMERIS_TYPE":0,"CLASSIFICATION_TYPE":"U","NORAD_CAT_ID":33153,"ELEMENT_SET_NO":999,"REV_AT_EPOCH":6466,"BSTAR":0,"MEAN_MOTION_DOT":-2.28e-6,"MEAN_MOTION_DDOT":0},{"OBJECT_NAME":"GALAXY 19 (G-19)","OBJECT_ID":"2008-045A","EPOCH":"2026-03-06T04:24:38.565216","MEAN_MOTION":1.00271475,"ECCENTRICITY":0.00027916,"INCLINATION":0.0445,"RA_OF_ASC_NODE":261.1257,"ARG_OF_PERICENTER":86.4997,"MEAN_ANOMALY":145.4309,"EPHEMERIS_TYPE":0,"CLASSIFICATION_TYPE":"U","NORAD_CAT_ID":33376,"ELEMENT_SET_NO":999,"REV_AT_EPOCH":6387,"BSTAR":0,"MEAN_MOTION_DOT":-1.44e-6,"MEAN_MOTION_DDOT":0},{"OBJECT_NAME":"FM-5","OBJECT_ID":"2009-034A","EPOCH":"2026-03-05T13:35:14.032032","MEAN_MOTION":1.00272163,"ECCENTRICITY":8.71e-5,"INCLINATION":0.038,"RA_OF_ASC_NODE":271.4834,"ARG_OF_PERICENTER":304.99,"MEAN_ANOMALY":64.4559,"EPHEMERIS_TYPE":0,"CLASSIFICATION_TYPE":"U","NORAD_CAT_ID":35493,"ELEMENT_SET_NO":999,"REV_AT_EPOCH":4560,"BSTAR":0,"MEAN_MOTION_DOT":-2.07e-6,"MEAN_MOTION_DDOT":0},{"OBJECT_NAME":"INTELSAT 14 (IS-14)","OBJECT_ID":"2009-064A","EPOCH":"2026-03-05T20:37:47.361216","MEAN_MOTION":1.00274449,"ECCENTRICITY":0.00023742,"INCLINATION":0.0248,"RA_OF_ASC_NODE":92.5236,"ARG_OF_PERICENTER":252.0947,"MEAN_ANOMALY":83.4189,"EPHEMERIS_TYPE":0,"CLASSIFICATION_TYPE":"U","NORAD_CAT_ID":36097,"ELEMENT_SET_NO":999,"REV_AT_EPOCH":5956,"BSTAR":0,"MEAN_MOTION_DOT":-2.8e-6,"MEAN_MOTION_DDOT":0},{"OBJECT_NAME":"INTELSAT 15 (IS-15)","OBJECT_ID":"2009-067A","EPOCH":"2026-03-06T02:22:56.755200","MEAN_MOTION":1.0027009,"ECCENTRICITY":0.00023733,"INCLINATION":0.0187,"RA_OF_ASC_NODE":168.6392,"ARG_OF_PERICENTER":190.7694,"MEAN_ANOMALY":285.31,"EPHEMERIS_TYPE":0,"CLASSIFICATION_TYPE":"U","NORAD_CAT_ID":36106,"ELEMENT_SET_NO":999,"REV_AT_EPOCH":4019,"BSTAR":0,"MEAN_MOTION_DOT":0,"MEAN_MOTION_DDOT":0},{"OBJECT_NAME":"DIRECTV 12","OBJECT_ID":"2009-075A","EPOCH":"2026-03-06T04:24:38.565216","MEAN_MOTION":1.0027227,"ECCENTRICITY":3.619e-5,"INCLINATION":0.0195,"RA_OF_ASC_NODE":337.1647,"ARG_OF_PERICENTER":42.214,"MEAN_ANOMALY":107.97,"EPHEMERIS_TYPE":0,"CLASSIFICATION_TYPE":"U","NORAD_CAT_ID":36131,"ELEMENT_SET_NO":999,"REV_AT_EPOCH":4552,"BSTAR":0,"MEAN_MOTION_DOT":-1.09e-6,"MEAN_MOTION_DDOT":0},{"OBJECT_NAME":"INTELSAT 16 (IS-16)","OBJECT_ID":"2010-006A","EPOCH":"2026-03-06T04:08:38.676768","MEAN_MOTION":1.00272464,"ECCENTRICITY":0.00020188,"INCLINATION":0.0204,"RA_OF_ASC_NODE":112.5804,"ARG_OF_PERICENTER":240.2762,"MEAN_ANOMALY":156.9897,"EPHEMERIS_TYPE":0,"CLASSIFICATION_TYPE":"U","NORAD_CAT_ID":36397,"ELEMENT_SET_NO":999,"REV_AT_EPOCH":5862,"BSTAR":0,"MEAN_MOTION_DOT":-2.5e-6,"MEAN_MOTION_DDOT":0},{"OBJECT_NAME":"XM-5","OBJECT_ID":"2010-053A","EPOCH":"2026-03-05T15:09:42.474240","MEAN_MOTION":1.00271669,"ECCENTRICITY":0.00034848,"INCLINATION":0.0658,"RA_OF_ASC_NODE":274.3985,"ARG_OF_PERICENTER":253.1594,"MEAN_ANOMALY":108.0167,"EPHEMERIS_TYPE":0,"CLASSIFICATION_TYPE":"U","NORAD_CAT_ID":37185,"ELEMENT_SET_NO":999,"REV_AT_EPOCH":5644,"BSTAR":0,"MEAN_MOTION_DOT":-3.0e-7,"MEAN_MOTION_DDOT":0},{"OBJECT_NAME":"INTELSAT 17 (IS-17)","OBJECT_ID":"2010-065B","EPOCH":"2026-03-06T05:20:38.699232","MEAN_MOTION":1.00272916,"ECCENTRICITY":0.00024911,"INCLINATION":0.0169,"RA_OF_ASC_NODE":183.5973,"ARG_OF_PERICENTER":166.8887,"MEAN_ANOMALY":319.6073,"EPHEMERIS_TYPE":0,"CLASSIFICATION_TYPE":"U","NORAD_CAT_ID":37238,"ELEMENT_SET_NO":999,"REV_AT_EPOCH":5221,"BSTAR":0,"MEAN_MOTION_DOT":-7.0e-8,"MEAN_MOTION_DDOT":0},{"OBJECT_NAME":"INTELSAT 28 (IS-28)","OBJECT_ID":"2011-016A","EPOCH":"2026-03-06T04:28:35.035104","MEAN_MOTION":1.00272064,"ECCENTRICITY":0.00046269,"INCLINATION":1.5399,"RA_OF_ASC_NODE":83.961,"ARG_OF_PERICENTER":261.6592,"MEAN_ANOMALY":213.7252,"EPHEMERIS_TYPE":0,"CLASSIFICATION_TYPE":"U","NORAD_CAT_ID":37392,"ELEMENT_SET_NO":999,"REV_AT_EPOCH":5225,"BSTAR":0,"MEAN_MOTION_DOT":-2.3e-6,"MEAN_MOTION_DDOT":0},{"OBJECT_NAME":"INTELSAT 18 (IS-18)","OBJECT_ID":"2011-056A","EPOCH":"2026-03-06T06:15:26.959680","MEAN_MOTION":1.002744,"ECCENTRICITY":0.00019211,"INCLINATION":0.0379,"RA_OF_ASC_NODE":265.9124,"ARG_OF_PERICENTER":78.0185,"MEAN_ANOMALY":93.9005,"EPHEMERIS_TYPE":0,"CLASSIFICATION_TYPE":"U","NORAD_CAT_ID":37834,"ELEMENT_SET_NO":999,"REV_AT_EPOCH":5277,"BSTAR":0,"MEAN_MOTION_DOT":4.8e-7,"MEAN_MOTION_DDOT":0},{"OBJECT_NAME":"INTELSAT 22 (IS-22)","OBJECT_ID":"2012-011A","EPOCH":"2026-03-06T02:19:12.114336","MEAN_MOTION":1.0027131,"ECCENTRICITY":0.00016684,"INCLINATION":0.0028,"RA_OF_ASC_NODE":173.3912,"ARG_OF_PERICENTER":192.4141,"MEAN_ANOMALY":264.9179,"EPHEMERIS_TYPE":0,"CLASSIFICATION_TYPE":"U","NORAD_CAT_ID":38098,"ELEMENT_SET_NO":999,"REV_AT_EPOCH":615,"BSTAR":0,"MEAN_MOTION_DOT":-6.4e-7,"MEAN_MOTION_DDOT":0},{"OBJECT_NAME":"INTELSAT 19 (IS-19)","OBJECT_ID":"2012-030A","EPOCH":"2026-03-05T13:47:38.794848","MEAN_MOTION":1.00265112,"ECCENTRICITY":0.0003028,"INCLINATION":0.0248,"RA_OF_ASC_NODE":145.0136,"ARG_OF_PERICENTER":212.2815,"MEAN_ANOMALY":178.9261,"EPHEMERIS_TYPE":0,"CLASSIFICATION_TYPE":"U","NORAD_CAT_ID":38356,"ELEMENT_SET_NO":999,"REV_AT_EPOCH":4941,"BSTAR":0,"MEAN_MOTION_DOT":0,"MEAN_MOTION_DDOT":0},{"OBJECT_NAME":"INTELSAT 20 (IS-20)","OBJECT_ID":"2012-043A","EPOCH":"2026-03-05T13:22:09.737760","MEAN_MOTION":1.00271907,"ECCENTRICITY":0.0002357,"INCLINATION":0.019,"RA_OF_ASC_NODE":140.1706,"ARG_OF_PERICENTER":26.137,"MEAN_ANOMALY":266.0165,"EPHEMERIS_TYPE":0,"CLASSIFICATION_TYPE":"U","NORAD_CAT_ID":38740,"ELEMENT_SET_NO":999,"REV_AT_EPOCH":4970,"BSTAR":0,"MEAN_MOTION_DOT":-3.2e-7,"MEAN_MOTION_DDOT":0},{"OBJECT_NAME":"INTELSAT 21 (IS-21)","OBJECT_ID":"2012-045A","EPOCH":"2026-03-05T08:35:11.417856","MEAN_MOTION":1.00270471,"ECCENTRICITY":0.000178,"INCLINATION":0.0301,"RA_OF_ASC_NODE":254.851,"ARG_OF_PERICENTER":99.0784,"MEAN_ANOMALY":239.9498,"EPHEMERIS_TYPE":0,"CLASSIFICATION_TYPE":"U","NORAD_CAT_ID":38749,"ELEMENT_SET_NO":999,"REV_AT_EPOCH":4948,"BSTAR":0,"MEAN_MOTION_DOT":-2.93e-6,"MEAN_MOTION_DDOT":0}]
